[{"OBJECT_NAME":"COSMO-SKYMED 3","OBJECT_ID":"2008-054A","EPOCH":"2026-03-09T22:03:15.183936","MEAN_MOTION":15.06259488,"ECCENTRICITY":0.00143526,"INCLINATION":97.8419,"RA_OF_ASC_NODE":285.8111,"ARG_OF_PERICENTER":240.3641,"MEAN_ANOMALY":119.6157,"EPHEMERIS_TYPE":0,"CLASSIFICATION_TYPE":"U","NORAD_CAT_ID":33412,"ELEMENT_SET_NO":999,"REV_AT_EPOCH":94199,"BSTAR":0.00061875413,"MEAN_MOTION_DOT":9.042e-5,"MEAN_MOTION_DDOT":0},{"OBJECT_NAME":"STARLINK-4642","OBJECT_ID":"2022-107W","EPOCH":"2026-03-09T22:22:23.090880","MEAN_MOTION":15.08862358,"ECCENTRICITY":0.00011406,"INCLINATION":53.2159,"RA_OF_ASC_NODE":252.79,"ARG_OF_PERICENTER":99.7799,"MEAN_ANOMALY":260.3322,"EPHEMERIS_TYPE":0,"CLASSIFICATION_TYPE":"U","NORAD_CAT_ID":53720,"ELEMENT_SET_NO":999,"REV_AT_EPOCH":19445,"BSTAR":0.00021109397,"MEAN_MOTION_DOT":3.075e-5,"MEAN_MOTION_DDOT":0}]
